OBJECT_NAME,OBJECT_ID,EPOCH,MEAN_MOTION,ECCENTRICITY,INCLINATION,RA_OF_ASC_NODE,ARG_OF_PERICENTER,MEAN_ANOMALY,EPHEMERIS_TYPE,CLASSIFICATION_TYPE,NORAD_CAT_ID,ELEMENT_SET_NO,REV_AT_EPOCH,BSTAR,MEAN_MOTION_DOT,MEAN_MOTION_DDOT
HAWK-9C,2024-066G,2024-04-21T02:09:36.804384,14.92065804,0.0005053,45.6095,7.422,186.7015,173.3797,0,U,59448,999,194,0.00082261,8.262e-05,0
HAWK-8C,2024-066H,2024-04-22T03:49:44.730336,14.9205193,0.0004495,45.6098,1.9275,215.0232,145.0352,0,U,59449,999,210,0.00046428,4.564e-05,0
HAWK-9B,2024-066J,2024-04-21T23:01:59.478816,14.92101651,0.0004662,45.6165,2.9697,199.3763,160.6939,0,U,59450,999,207,0.0012243,0.0001242,0
CENTAURI-6,2024-066K,2024-04-21T21:19:04.682496,14.92561797,0.0005471,45.6071,3.2686,223.9311,136.1133,0,U,59451,999,207,0.0012663,0.00013007,0
425SAT-1,2024-066L,2024-04-22T03:45:50.505120,14.99580596,0.0005055,45.4154,0.3793,65.4641,294.6764,0,U,59452,999,211,0.0013617,0.0001681,0
STARLINK-31617,2024-068A,2024-04-22T04:00:00.999936,15.76073661,0.0002203,43.0024,347.5472,275.2077,82.6812,0,U,59455,999,312,-0.0063206,-0.00913349,0
STARLINK-31622,2024-068B,2024-04-22T04:00:00.999936,15.76062282,0.0002089,43.0023,347.5365,276.3437,85.6546,0,U,59456,999,311,-0.006419,-0.00925654,0
STARLINK-31319,2024-068C,2024-04-22T04:00:00.999936,15.76080535,0.0002208,43.0023,347.5421,275.5581,84.3152,0,U,59457,999,311,-0.0063124,-0.00912536,0
STARLINK-31625,2024-068D,2024-04-22T04:00:00.999936,15.76048587,0.000218,43.0022,347.5312,275.6681,88.4184,0,U,59458,999,312,-0.0064651,-0.00931147,0
STARLINK-31631,2024-068E,2024-04-22T04:00:00.999936,15.76173613,0.0002339,43.0021,347.5254,287.3567,79.0738,0,U,59459,999,311,-0.0064409,-0.00932737,0
STARLINK-31620,2024-068F,2024-04-22T04:00:00.999936,15.75998592,0.0002106,43.0021,347.5204,278.3659,89.978,0,U,59460,999,311,-0.0065601,-0.00941498,0
STARLINK-31482,2024-068G,2024-04-22T04:00:00.999936,15.92404526,0.0004711,43.0017,347.1322,245.2749,277.7682,0,U,59461,999,312,0.0020533,0.007188,0.00021725
STARLINK-31511,2024-068H,2024-04-22T04:00:00.999936,15.75929757,0.0002235,43.0019,347.5041,275.5934,99.1216,0,U,59462,999,311,-0.0067976,-0.0096933,0
STARLINK-31364,2024-068J,2024-04-21T22:00:00.999936,15.7650133,0.0001857,43.0023,349.0295,271.7508,120.5514,0,U,59463,999,309,-0.0069107,-0.01023113,0
STARLINK-31597,2024-068K,2024-04-22T04:00:00.999936,15.75899482,0.0002138,43.002,347.4986,275.1182,101.7416,0,U,59464,999,305,-0.0068833,-0.00995073,0
STARLINK-31621,2024-068L,2024-04-22T04:00:00.999936,15.75898797,0.0002058,43.002,347.4934,272.676,106.2102,0,U,59465,999,311,-0.0069302,-0.01001162,0
STARLINK-31462,2024-068M,2024-04-22T04:00:00.999936,15.80479705,0.0001931,43.0018,347.2033,274.7326,219.6019,0,U,59466,999,312,-0.0048807,-0.00866568,0
STARLINK-31592,2024-068N,2024-04-22T04:00:00.999936,15.75833585,0.0002054,43.0017,347.4823,272.5977,110.575,0,U,59467,999,311,-0.0070841,-0.01018605,0
STARLINK-31267,2024-068P,2024-04-21T22:00:00.999936,15.76377056,0.0001905,43.0019,348.9964,272.3647,132.7641,0,U,59468,999,309,-0.007304,-0.01070166,0
STARLINK-31381,2024-068Q,2024-04-22T04:00:00.999936,15.75795606,0.0002241,43.0015,347.4717,276.2697,111.071,0,U,59469,999,311,-0.0071785,-0.01029384,0
STARLINK-31546,2024-068R,2024-04-21T22:00:00.999936,15.76352912,0.0001919,43.0017,348.9858,272.5108,136.793,0,U,59470,999,309,-0.0074148,-0.01083713,0
STARLINK-31575,2024-068S,2024-04-21T22:00:00.999936,15.76339507,0.0001955,43.0016,348.9804,273.3254,138.0685,0,U,59471,999,308,-0.0074716,-0.01090598,0
STARLINK-31375,2024-068T,2024-04-22T04:00:00.999936,15.75692052,0.0002059,43.0013,347.4502,273.2861,122.4772,0,U,59472,999,311,-0.0074866,-0.0106466,0
STARLINK-31610,2024-068U,2024-04-22T04:00:00.999936,15.75711906,0.0002102,43.0014,347.4556,275.0406,118.643,0,U,59473,999,311,-0.0074194,-0.01056904,0
STARLINK-31581,2024-068V,2024-04-22T04:00:00.999936,15.75651093,0.0002072,43.0014,347.445,274.4013,123.5061,0,U,59474,999,311,-0.007568,-0.01073322,0
STARLINK-31566,2024-068W,2024-04-22T04:00:00.999936,15.75652318,0.0002066,43.0013,347.4399,274.1549,125.7648,0,U,59475,999,311,-0.0076052,-0.01078116,0
STARLINK-31515,2024-068X,2024-04-22T04:00:00.999936,15.75619976,0.0002059,43.0014,347.4347,277.2769,124.7513,0,U,59476,999,311,-0.0076658,-0.01084432,0
STARLINK-31531,2024-068Y,2024-04-21T22:00:00.999936,15.76220754,0.0001836,43.0015,348.9488,269.1209,154.9512,0,U,59477,999,309,-0.0078833,-0.01138791,0
GAGARINETS,2024-069B,2024-04-16T12:47:35.365344,15.97182127,0.0144344,51.7157,345.6247,36.2575,33.7348,0,U,59480,999,82,0.0012728,0.01874246,1.1434e-05
WSF-M,2024-070A,2024-04-12T17:20:50.594784,14.20447089,0.000602,98.7189,111.4766,94.8649,16.5271,0,U,59481,999,15,0,-4.4e-07,0
