HAWK-9C                 
1 59448U 24066G   24112.09000931  .00008262  00000+0  82261-3 0  9999
2 59448  45.6095   7.4220 0005053 186.7015 173.3797 14.92065804  1947
HAWK-8C                 
1 59449U 24066H   24113.15954549  .00004564  00000+0  46428-3 0  9997
2 59449  45.6098   1.9275 0004495 215.0232 145.0352 14.92051930  2103
HAWK-9B                 
1 59450U 24066J   24112.95971619  .00012420  00000+0  12243-2 0  9990
2 59450  45.6165   2.9697 0004662 199.3763 160.6939 14.92101651  2074
CENTAURI-6              
1 59451U 24066K   24112.88824864  .00013007  00000+0  12663-2 0  9990
2 59451  45.6071   3.2686 0005471 223.9311 136.1133 14.92561797  2070
425SAT-1                
1 59452U 24066L   24113.15683455  .00016810  00000+0  13617-2 0  9996
2 59452  45.4154   0.3793 0005055  65.4641 294.6764 14.99580596  2111
STARLINK-31617          
1 59455U 24068A   24113.16667824 -.00913349  00000+0 -63206-2 0  9998
2 59455  43.0024 347.5472 0002203 275.2077  82.6812 15.76073661  3127
STARLINK-31622          
1 59456U 24068B   24113.16667824 -.00925654  00000+0 -64190-2 0  9994
2 59456  43.0023 347.5365 0002089 276.3437  85.6546 15.76062282  3115
STARLINK-31319          
1 59457U 24068C   24113.16667824 -.00912536  00000+0 -63124-2 0  9996
2 59457  43.0023 347.5421 0002208 275.5581  84.3152 15.76080535  3113
STARLINK-31625          
1 59458U 24068D   24113.16667824 -.00931147  00000+0 -64651-2 0  9992
2 59458  43.0022 347.5312 0002180 275.6681  88.4184 15.76048587  3125
STARLINK-31631          
1 59459U 24068E   24113.16667824 -.00932737  00000+0 -64409-2 0  9990
2 59459  43.0021 347.5254 0002339 287.3567  79.0738 15.76173613  3118
STARLINK-31620          
1 59460U 24068F   24113.16667824 -.00941498  00000+0 -65601-2 0  9991
2 59460  43.0021 347.5204 0002106 278.3659  89.9780 15.75998592  3116
STARLINK-31482          
1 59461U 24068G   24113.16667824  .00718800  21725-3  20533-2 0  9995
2 59461  43.0017 347.1322 0004711 245.2749 277.7682 15.92404526  3123
STARLINK-31511          
1 59462U 24068H   24113.16667824 -.00969330  00000+0 -67976-2 0  9995
2 59462  43.0019 347.5041 0002235 275.5934  99.1216 15.75929757  3116
STARLINK-31364          
1 59463U 24068J   24112.91667824 -.01023113  00000+0 -69107-2 0  9997
2 59463  43.0023 349.0295 0001857 271.7508 120.5514 15.76501330  3095
STARLINK-31597          
1 59464U 24068K   24113.16667824 -.00995073  00000+0 -68833-2 0  9993
2 59464  43.0020 347.4986 0002138 275.1182 101.7416 15.75899482  3056
STARLINK-31621          
1 59465U 24068L   24113.16667824 -.01001162  00000+0 -69302-2 0  9994
2 59465  43.0020 347.4934 0002058 272.6760 106.2102 15.75898797  3112
STARLINK-31462          
1 59466U 24068M   24113.16667824 -.00866568  00000+0 -48807-2 0  9990
2 59466  43.0018 347.2033 0001931 274.7326 219.6019 15.80479705  3125
STARLINK-31592          
1 59467U 24068N   24113.16667824 -.01018605  00000+0 -70841-2 0  9996
2 59467  43.0017 347.4823 0002054 272.5977 110.5750 15.75833585  3113
STARLINK-31267          
1 59468U 24068P   24112.91667824 -.01070166  00000+0 -73040-2 0  9993
2 59468  43.0019 348.9964 0001905 272.3647 132.7641 15.76377056  3093
STARLINK-31381          
1 59469U 24068Q   24113.16667824 -.01029384  00000+0 -71785-2 0  9992
2 59469  43.0015 347.4717 0002241 276.2697 111.0710 15.75795606  3116
STARLINK-31546          
1 59470U 24068R   24112.91667824 -.01083713  00000+0 -74148-2 0  9998
2 59470  43.0017 348.9858 0001919 272.5108 136.7930 15.76352912  3094
STARLINK-31575          
1 59471U 24068S   24112.91667824 -.01090598  00000+0 -74716-2 0  9999
2 59471  43.0016 348.9804 0001955 273.3254 138.0685 15.76339507  3082
STARLINK-31375          
1 59472U 24068T   24113.16667824 -.01064660  00000+0 -74866-2 0  9995
2 59472  43.0013 347.4502 0002059 273.2861 122.4772 15.75692052  3112
STARLINK-31610          
1 59473U 24068U   24113.16667824 -.01056904  00000+0 -74194-2 0  9992
2 59473  43.0014 347.4556 0002102 275.0406 118.6430 15.75711906  3115
STARLINK-31581          
1 59474U 24068V   24113.16667824 -.01073322  00000+0 -75680-2 0  9997
2 59474  43.0014 347.4450 0002072 274.4013 123.5061 15.75651093  3117
STARLINK-31566          
1 59475U 24068W   24113.16667824 -.01078116  00000+0 -76052-2 0  9998
2 59475  43.0013 347.4399 0002066 274.1549 125.7648 15.75652318  3119
STARLINK-31515          
1 59476U 24068X   24113.16667824 -.01084432  00000+0 -76658-2 0  9999
2 59476  43.0014 347.4347 0002059 277.2769 124.7513 15.75619976  3117
STARLINK-31531          
1 59477U 24068Y   24112.91667824 -.01138791  00000+0 -78833-2 0  9997
2 59477  43.0015 348.9488 0001836 269.1209 154.9512 15.76220754  3096
GAGARINETS              
1 59480U 24069B   24107.53304821  .01874246  11434-4  12728-2 0  9998
2 59480  51.7157 345.6247 0144344  36.2575  33.7348 15.97182127   824
WSF-M                   
1 59481U 24070A   24103.72280781 -.00000044  00000+0  00000+0 0  9992
2 59481  98.7189 111.4766 0006020  94.8649  16.5271 14.20447089   152
